[{"OBJECT_NAME":"STARLINK-34935","OBJECT_ID":"2025-184E","EPOCH":"2026-03-09T22:51:52.994016","MEAN_MOTION":15.05649777,"ECCENTRICITY":0.00011009,"INCLINATION":97.6036,"RA_OF_ASC_NODE":122.9671,"ARG_OF_PERICENTER":97.5253,"MEAN_ANOMALY":262.6099,"EPHEMERIS_TYPE":0,"CLASSIFICATION_TYPE":"U","NORAD_CAT_ID":65277,"ELEMENT_SET_NO":999,"REV_AT_EPOCH":3134,"BSTAR":0.00023691638,"MEAN_MOTION_DOT":3.359e-5,"MEAN_MOTION_DDOT":0},{"OBJECT_NAME":"UNKNOWN","OBJECT_ID":"","EPOCH":"2026-03-09T16:30:44.564256","MEAN_MOTION":14.36564228,"ECCENTRICITY":0.0359571,"INCLINATION":65.6735,"RA_OF_ASC_NODE":282.8329,"ARG_OF_PERICENTER":31.2915,"MEAN_ANOMALY":28.2093,"EPHEMERIS_TYPE":0,"CLASSIFICATION_TYPE":"U","NORAD_CAT_ID":87764,"ELEMENT_SET_NO":999,"REV_AT_EPOCH":63160,"BSTAR":0.0015438,"MEAN_MOTION_DOT":9.503e-5,"MEAN_MOTION_DDOT":0}]
